NORAD_CAT_ID,OBJECT_NAME,OBJECT_TYPE,EPOCH,MEAN_MOTION,ECCENTRICITY,INCLINATION,RA_OF_ASC_NODE,ARG_OF_PERICENTER,MEAN_ANOMALY,BSTAR,MEAN_MOTION_DOT,MEAN_MOTION_DDOT,TLE_LINE0,TLE_LINE1,TLE_LINE2,SEMIMAJOR_AXIS,PERIOD,APOGEE,PERIGEE,DECAYED
55315.0,STARLINK-4623,PAYLOAD,2024-02-27 03:38:10,14.98328797,0.0002725,69.9995,94.1515,264.4157,95.6691,-4.8845e-05,-6.76e-06,0.0,0 STARLINK-4623,1 55315U 23010AY  24058.15151424 -.00000676  00000-0 -48845-4 0  9991,2 55315  69.9995  94.1515 0002725 264.4157  95.6691 14.98328797 61896,6950.197,96.107,573.956,570.168,0.0
55315.0,STARLINK-4623,PAYLOAD,2024-02-27 11:38:49,14.98345437,0.0002934,69.9992,93.3097,269.0215,91.0608,0.00014077,1.588e-05,0.0,0 STARLINK-4623,1 55315U 23010AY  24058.48530015  .00001588  00000-0  14077-3 0  9994,2 55315  69.9992  93.3097 0002934 269.0215  91.0608 14.98345437 61941,6950.145,96.106,574.049,569.971,0.0
55315.0,STARLINK-4623,PAYLOAD,2024-02-27 13:14:59,14.98330521,0.0002881,69.9985,93.1407,266.0375,94.0455,-3.3105e-05,-4.88e-06,0.0,0 STARLINK-4623,1 55315U 23010AY  24058.55207291 -.00000488  00000-0 -33105-4 0  9993,2 55315  69.9985  93.1407 0002881 266.0375  94.0455 14.98330521 62246,6950.191,96.107,574.059,570.054,0.0
55315.0,STARLINK-4623,PAYLOAD,2024-02-27 19:39:31,14.98330048,0.0003068,69.9985,92.4672,268.5891,91.4917,-8.9969e-05,-1.166e-05,0.0,0 STARLINK-4623,1 55315U 23010AY  24058.81911421 -.00001166  00000-0 -89969-4 0  9992,2 55315  69.9985  92.4672 0003068 268.5891  91.4917 14.98330048 61999,6950.193,96.107,574.19,569.925,0.0
55315.0,STARLINK-4623,PAYLOAD,2024-02-28 13:16:59,14.98332099,0.0003016,69.9985,90.6155,268.8444,91.237,3.367e-05,3.09e-06,0.0,0 STARLINK-4623,1 55315U 23010AY  24059.55347045  .00000309  00000-0  33670-4 0  9993,2 55315  69.9985  90.6155 0003016 268.8444  91.2370 14.98332099 62399,6950.186,96.107,574.148,569.955,0.0
55315.0,STARLINK-4623,PAYLOAD,2024-02-28 19:41:32,14.98327956,0.0003025,69.9984,89.9421,269.1533,90.928,2.6212e-05,2.2e-06,0.0,0 STARLINK-4623,1 55315U 23010AY  24059.82051296  .00000220  00000-0  26212-4 0  9999,2 55315  69.9984  89.9421 0003025 269.1533  90.9280 14.98327956 62143,6950.199,96.107,574.167,569.962,0.0
55315.0,STARLINK-4623,PAYLOAD,2024-02-29 11:42:52,14.98331799,0.0003035,69.9984,88.2588,269.6086,90.4725,6.4875e-05,6.81e-06,0.0,0 STARLINK-4623,1 55315U 23010AY  24060.48810965  .00000681  00000-0  64875-4 0  9997,2 55315  69.9984  88.2588 0003035 269.6086  90.4725 14.98331799 62530,6950.187,96.107,574.162,569.943,0.0
55315.0,STARLINK-4623,PAYLOAD,2024-03-01 03:44:13,14.98327473,0.0003011,69.9984,86.5755,269.7891,90.2923,-2.0672e-05,-3.4e-06,0.0,0 STARLINK-4623,1 55315U 23010AY  24061.15571460 -.00000340  00000-0 -20672-4 0  9997,2 55315  69.9984  86.5755 0003011 269.7891  90.2923 14.98327473 62347,6950.201,96.107,574.158,569.973,0.0
55315.0,STARLINK-4623,PAYLOAD,2024-03-01 11:44:53,14.98329591,0.0003053,69.9984,85.7339,270.4578,89.6231,-2.7847e-05,-4.25e-06,0.0,0 STARLINK-4623,1 55315U 23010AY  24061.48951358 -.00000425  00000-0 -27847-4 0  9996,2 55315  69.9984  85.7339 0003053 270.4578  89.6231 14.98329591 62687,6950.194,96.107,574.181,569.937,0.0
55315.0,STARLINK-4623,PAYLOAD,2024-03-02 03:46:14,14.98331296,0.0003044,69.9983,84.0507,270.7512,89.3299,2.9105e-05,2.54e-06,0.0,0 STARLINK-4623,1 55315U 23010AY  24062.15711029  .00000254  00000-0  29105-4 0  9997,2 55315  69.9983  84.0507 0003044 270.7512  89.3299 14.98331296 62491,6950.189,96.107,574.17,569.938,0.0
55315.0,STARLINK-4623,PAYLOAD,2024-03-02 10:10:46,14.98334317,0.0002904,69.999,83.3782,269.0853,90.9973,2.5497e-05,2.11e-06,0.0,0 STARLINK-4623,1 55315U 23010AY  24062.42414795  .00000211  00000-0  25497-4 0  9990,2 55315  69.9990  83.3782 0002904 269.0853  90.9973 14.98334317 62820,6950.18,96.107,574.063,570.026,0.0
55315.0,STARLINK-4623,PAYLOAD,2024-03-02 18:11:26,14.98331243,0.0002913,69.9989,82.5362,269.9843,90.0982,-7.71e-08,-9.4e-07,0.0,0 STARLINK-4623,1 55315U 23010AY  24062.75794989 -.00000094  00000-0 -77100-7 0  9994,2 55315  69.9989  82.5362 0002913 269.9843  90.0982 14.98331243 62872,6950.189,96.107,574.079,570.029,0.0
55315.0,STARLINK-4623,PAYLOAD,2024-03-03 03:48:15,14.98327221,0.0002869,69.999,81.5266,268.7139,91.3691,4.4906e-06,-3.9e-07,0.0,0 STARLINK-4623,1 55315U 23010AY  24063.15851229 -.00000039  00000-0  44906-5 0  9994,2 55315  69.9990  81.5266 0002869 268.7139  91.3691 14.98327221 62648,6950.201,96.107,574.06,570.072,0.0
55315.0,STARLINK-4623,PAYLOAD,2024-03-03 10:12:47,14.98325822,0.0002828,69.9991,80.8527,268.9995,91.084,-1.815e-05,-3.1e-06,0.0,0 STARLINK-4623,1 55315U 23010AY  24063.42555419 -.00000310  00000-0 -18150-4 0  9990,2 55315  69.9991  80.8527 0002828 268.9995  91.0840 14.98325822 62972,6950.206,96.107,574.036,570.105,0.0
55315.0,STARLINK-4623,PAYLOAD,2024-03-04 03:50:16,14.98334368,0.0002819,69.999,79.0003,265.382,94.7017,-1.0159e-05,-2.14e-06,0.0,0 STARLINK-4623,1 55315U 23010AY  24064.15990790 -.00000214  00000-0 -10159-4 0  9990,2 55315  69.9990  79.0003 0002819 265.3820  94.7017 14.98334368 62799,6950.179,96.107,574.004,570.085,0.0
55315.0,STARLINK-4623,PAYLOAD,2024-03-04 10:14:48,14.98336559,0.0002846,69.999,78.3276,268.2845,91.7988,1.8238e-05,1.25e-06,0.0,0 STARLINK-4623,1 55315U 23010AY  24064.42694500  .00000125  00000-0  18238-4 0  9995,2 55315  69.9990  78.3276 0002846 268.2845  91.7988 14.98336559 63128,6950.173,96.107,574.016,570.06,0.0
55315.0,STARLINK-4623,PAYLOAD,2024-03-04 18:15:28,14.98330443,0.0002881,69.9995,77.4852,271.2891,88.7938,-1.2024e-05,-2.36e-06,0.0,0 STARLINK-4623,1 55315U 23010AY  24064.76074876 -.00000236  00000-0 -12024-4 0  9992,2 55315  69.9995  77.4852 0002881 271.2891  88.7938 14.98330443 63179,6950.192,96.107,574.059,570.054,0.0
55315.0,STARLINK-4623,PAYLOAD,2024-03-05 03:52:18,14.98317878,0.0003056,69.9988,76.4756,270.243,89.8378,-8.4522e-05,-1.101e-05,0.0,0 STARLINK-4623,1 55315U 23010AY  24065.16131946 -.00001101  00000-0 -84522-4 0  9993,2 55315  69.9988  76.4756 0003056 270.2430  89.8378 14.98317878 62947,6950.23,96.108,574.219,569.971,0.0
55315.0,STARLINK-4623,PAYLOAD,2024-03-05 10:16:50,14.98320406,0.000251,69.9995,75.8016,260.3351,99.7525,-6.0241e-05,-8.11e-06,0.0,0 STARLINK-4623,1 55315U 23010AY  24065.42835859 -.00000811  00000-0 -60241-4 0  9995,2 55315  69.9995  75.8016 0002510 260.3351  99.7525 14.98320406 63275,6950.223,96.108,573.832,570.343,0.0
55315.0,STARLINK-4623,PAYLOAD,2024-03-06 03:54:18,14.98331456,0.0002856,69.9989,73.9497,271.992,88.0912,-3.954e-05,-5.65e-06,0.0,0 STARLINK-4623,1 55315U 23010AY  24066.16271272 -.00000565  00000-0 -39540-4 0  9994,2 55315  69.9989  73.9497 0002856 271.9920  88.0912 14.98331456 63091,6950.188,96.107,574.038,570.068,0.0
55315.0,STARLINK-4623,PAYLOAD,2024-03-06 10:18:50,14.98333529,0.0002992,69.9989,73.2766,270.7516,89.33,-1.4516e-05,-2.66e-06,0.0,0 STARLINK-4623,1 55315U 23010AY  24066.42975011 -.00000266  00000-0 -14516-4 0  9999,2 55315  69.9989  73.2766 0002992 270.7516  89.3300 14.98333529 63427,6950.182,96.107,574.126,569.967,0.0
55315.0,STARLINK-4623,PAYLOAD,2024-03-07 03:56:19,14.98327284,0.0003051,69.999,71.4252,272.6348,87.4462,0.00013333,1.498e-05,0.0,0 STARLINK-4623,1 55315U 23010AY  24067.16410924  .00001498  00000-0  13333-3 0  9999,2 55315  69.9990  71.4252 0003051 272.6348  87.4462 14.98327284 63249,6950.201,96.107,574.187,569.946,0.0
55315.0,STARLINK-4623,PAYLOAD,2024-03-07 10:20:50,14.98332516,0.0002851,69.9991,70.7519,267.5116,92.5717,0.00013023,1.461e-05,0.0,0 STARLINK-4623,1 55315U 23010AY  24067.43114581  .00001461  00000-0  13023-3 0  9995,2 55315  69.9991  70.7519 0002851 267.5116  92.5717 14.98332516 63571,6950.185,96.107,574.032,570.069,0.0
55315.0,STARLINK-4623,PAYLOAD,2024-03-08 03:58:20,14.98335537,0.0002604,69.9999,68.9006,269.4011,90.685,-9.7582e-05,-1.257e-05,0.0,0 STARLINK-4623,1 55315U 23010AY  24068.16550962 -.00001257  00000-0 -97582-4 0  9991,2 55315  69.9999  68.9006 0002604 269.4011  90.6850 14.98335537 63393,6950.176,96.107,573.851,570.231,0.0
55315.0,STARLINK-4623,PAYLOAD,2024-03-08 10:22:52,14.98331954,0.000219,70.0,68.2275,252.8535,107.2384,-6.1704e-05,-8.29e-06,0.0,0 STARLINK-4623,1 55315U 23010AY  24068.43255046 -.00000829  00000-0 -61704-4 0  9997,2 55315  70.0000  68.2275 0002190 252.8535 107.2384 14.98331954 63720,6950.187,96.107,573.574,570.53,0.0
55315.0,STARLINK-4623,PAYLOAD,2024-03-08 16:47:24,14.98330542,0.0002661,70.0003,67.5532,274.1899,85.8956,-1.0561e-05,-2.19e-06,0.0,0 STARLINK-4623,1 55315U 23010AY  24068.69959052 -.00000219  00000-0 -10561-4 0  9991,2 55315  70.0003  67.5532 0002661 274.1899  85.8956 14.98330542 63766,6950.191,96.107,573.906,570.207,0.0
55315.0,STARLINK-4623,PAYLOAD,2024-03-09 04:00:20,14.98331194,0.0002892,69.9996,66.3752,270.4591,89.6236,-2.6299e-05,-4.07e-06,0.0,0 STARLINK-4623,1 55315U 23010AY  24069.16690850 -.00000407  00000-0 -26299-4 0  9996,2 55315  69.9996  66.3752 0002892 270.4591  89.6236 14.98331194 63542,6950.189,96.107,574.064,570.044,0.0
55315.0,STARLINK-4623,PAYLOAD,2024-03-09 10:24:53,14.98329471,0.0002838,69.9997,65.7021,265.9991,94.0844,3.3338e-06,-5.3e-07,0.0,0 STARLINK-4623,1 55315U 23010AY  24069.43394862 -.00000053  00000-0  33338-5 0  9999,2 55315  69.9997  65.7021 0002838 265.9991  94.0844 14.98329471 63874,6950.195,96.107,574.032,570.087,0.0
55315.0,STARLINK-4623,PAYLOAD,2024-03-09 16:49:24,14.98347038,0.0003061,69.9998,65.0285,272.2388,87.842,-0.00026702,-3.279e-05,0.0,0 STARLINK-4623,1 55315U 23010AY  24069.70098231 -.00003279  00000-0 -26702-3 0  9999,2 55315  69.9998  65.0285 0003061 272.2388  87.8420 14.98347038 63622,6950.14,96.106,574.133,569.878,0.0
55315.0,STARLINK-4623,PAYLOAD,2024-03-10 04:02:21,14.98327825,0.0002642,69.9996,63.8498,245.2256,114.8628,7.6414e-06,-2e-08,0.0,0 STARLINK-4623,1 55315U 23010AY  24070.16830694 -.00000002  00000-0  76414-5 0  9995,2 55315  69.9996  63.8498 0002642 245.2256 114.8628 14.98327825 63690,6950.2,96.107,573.901,570.228,0.0
